{
  "type": "FeatureCollection",
  "features": [
    {
      "type": "Feature",
      "properties": {
        "norad_id": 29985,
        "name": "FENGYUN 1C DEB",
        "group": "fengyun-1c-debris",
        "lat": -53.30485482446379,
        "lon": -178.8508131775548,
        "alt_km": 854.2318165338402,
        "timestamp": "2025-12-24T07:45:06.472563+00:00",
        "meta_object_name": "FENGYUN 1C DEB",
        "meta_object_id": "1999-025LK",
        "meta_epoch": "2025-12-23T22:26:34.863072",
        "meta_mean_motion": 14.10325962,
        "meta_eccentricity": 0.00286719,
        "meta_inclination": 98.71,
        "meta_ra_of_asc_node": 12.644,
        "meta_arg_of_pericenter": 177.022,
        "meta_mean_anomaly": 248.6748,
        "meta_ephemeris_type": 0,
        "meta_classification_type": "U",
        "meta_norad_cat_id": 29985,
        "meta_element_set_no": 999,
        "meta_rev_at_epoch": 97506,
        "meta_bstar": 4.6546853e-05,
        "meta_mean_motion_dot": 4e-07,
        "meta_mean_motion_ddot": 0,
        "tle_line1": "1 29985U 99025LK  25357.93512573  .00000040  00000+0  46547-4 0  9998",
        "tle_line2": "2 29985  98.7100  12.6440 0028671 177.0220 248.6748 14.10325962975069"
      },
      "geometry": {
        "type": "Point",
        "coordinates": [
          -178.8508131775548,
          -53.30485482446379
        ]
      }
    },
    {
      "type": "Feature",
      "properties": {
        "norad_id": 29986,
        "name": "FENGYUN 1C DEB",
        "group": "fengyun-1c-debris",
        "lat": -78.54523086628998,
        "lon": 121.70760740712845,
        "alt_km": 789.9349003337056,
        "timestamp": "2025-12-24T07:45:06.472573+00:00",
        "meta_object_name": "FENGYUN 1C DEB",
        "meta_object_id": "1999-025LL",
        "meta_epoch": "2025-12-22T04:10:58.154880",
        "meta_mean_motion": 14.29284956,
        "meta_eccentricity": 0.00229003,
        "meta_inclination": 99.3979,
        "meta_ra_of_asc_node": 64.5733,
        "meta_arg_of_pericenter": 328.7354,
        "meta_mean_anomaly": 58.116,
        "meta_ephemeris_type": 0,
        "meta_classification_type": "U",
        "meta_norad_cat_id": 29986,
        "meta_element_set_no": 999,
        "meta_rev_at_epoch": 97642,
        "meta_bstar": 0.0014121613,
        "meta_mean_motion_dot": 3.553e-05,
        "meta_mean_motion_ddot": 0,
        "tle_line1": "1 29986U 99025LL  25356.17428420  .00003553  00000+0  14122-2 0  9995",
        "tle_line2": "2 29986  99.3979  64.5733 0022900 328.7354  58.1160 14.29284956976424"
      },
      "geometry": {
        "type": "Point",
        "coordinates": [
          121.70760740712845,
          -78.54523086628998
        ]
      }
    },
    {
      "type": "Feature",
      "properties": {
        "norad_id": 29987,
        "name": "FENGYUN 1C DEB",
        "group": "fengyun-1c-debris",
        "lat": -18.585309740536818,
        "lon": -106.71194227721881,
        "alt_km": 892.6936872211099,
        "timestamp": "2025-12-24T07:45:06.472583+00:00",
        "meta_object_name": "FENGYUN 1C DEB",
        "meta_object_id": "1999-025LM",
        "meta_epoch": "2025-12-23T05:17:07.709568",
        "meta_mean_motion": 14.1463064,
        "meta_eccentricity": 0.00786562,
        "meta_inclination": 98.8977,
        "meta_ra_of_asc_node": 249.1698,
        "meta_arg_of_pericenter": 203.0854,
        "meta_mean_anomaly": 284.7428,
        "meta_ephemeris_type": 0,
        "meta_classification_type": "U",
        "meta_norad_cat_id": 29987,
        "meta_element_set_no": 999,
        "meta_rev_at_epoch": 96521,
        "meta_bstar": 0.0023690772,
        "meta_mean_motion_dot": 4.649e-05,
        "meta_mean_motion_ddot": 0,
        "tle_line1": "1 29987U 99025LM  25357.22022812  .00004649  00000+0  23691-2 0  9996",
        "tle_line2": "2 29987  98.8977 249.1698 0078656 203.0854 284.7428 14.14630640965215"
      },
      "geometry": {
        "type": "Point",
        "coordinates": [
          -106.71194227721881,
          -18.585309740536818
        ]
      }
    },
    {
      "type": "Feature",
      "properties": {
        "norad_id": 29988,
        "name": "FENGYUN 1C DEB",
        "group": "fengyun-1c-debris",
        "lat": 56.387565820024996,
        "lon": 89.29691089056084,
        "alt_km": 694.8191090337314,
        "timestamp": "2025-12-24T07:45:06.472593+00:00",
        "meta_object_name": "FENGYUN 1C DEB",
        "meta_object_id": "1999-025LN",
        "meta_epoch": "2025-12-23T19:00:01.925280",
        "meta_mean_motion": 14.50509751,
        "meta_eccentricity": 0.01200783,
        "meta_inclination": 98.6953,
        "meta_ra_of_asc_node": 102.059,
        "meta_arg_of_pericenter": 344.5587,
        "meta_mean_anomaly": 178.8104,
        "meta_ephemeris_type": 0,
        "meta_classification_type": "U",
        "meta_norad_cat_id": 29988,
        "meta_element_set_no": 999,
        "meta_rev_at_epoch": 98227,
        "meta_bstar": 0.0014821011,
        "meta_mean_motion_dot": 6.317e-05,
        "meta_mean_motion_ddot": 0,
        "tle_line1": "1 29988U 99025LN  25357.79168895  .00006317  00000+0  14821-2 0  9990",
        "tle_line2": "2 29988  98.6953 102.0590 0120078 344.5587 178.8104 14.50509751982273"
      },
      "geometry": {
        "type": "Point",
        "coordinates": [
          89.29691089056084,
          56.387565820024996
        ]
      }
    },
    {
      "type": "Feature",
      "properties": {
        "norad_id": 29989,
        "name": "FENGYUN 1C DEB",
        "group": "fengyun-1c-debris",
        "lat": -27.717770635876885,
        "lon": -18.601575352910867,
        "alt_km": 933.095673492704,
        "timestamp": "2025-12-24T07:45:06.472603+00:00",
        "meta_object_name": "FENGYUN 1C DEB",
        "meta_object_id": "1999-025LP",
        "meta_epoch": "2025-12-23T17:27:06.617952",
        "meta_mean_motion": 14.1582522,
        "meta_eccentricity": 0.01237889,
        "meta_inclination": 98.6691,
        "meta_ra_of_asc_node": 336.2209,
        "meta_arg_of_pericenter": 164.1494,
        "meta_mean_anomaly": 12.4035,
        "meta_ephemeris_type": 0,
        "meta_classification_type": "U",
        "meta_norad_cat_id": 29989,
        "meta_element_set_no": 999,
        "meta_rev_at_epoch": 97766,
        "meta_bstar": 0.00012431273,
        "meta_mean_motion_dot": 2.21e-06,
        "meta_mean_motion_ddot": 0,
        "tle_line1": "1 29989U 99025LP  25357.72715993  .00000221  00000+0  12431-3 0  9995",
        "tle_line2": "2 29989  98.6691 336.2209 0123788 164.1494  12.4035 14.15825220977661"
      },
      "geometry": {
        "type": "Point",
        "coordinates": [
          -18.601575352910867,
          -27.717770635876885
        ]
      }
    },
    {
      "type": "Feature",
      "properties": {
        "norad_id": 29992,
        "name": "FENGYUN 1C DEB",
        "group": "fengyun-1c-debris",
        "lat": 18.43495774871692,
        "lon": -9.791482474802926,
        "alt_km": 882.133519083246,
        "timestamp": "2025-12-24T07:45:06.472614+00:00",
        "meta_object_name": "FENGYUN 1C DEB",
        "meta_object_id": "1999-025LS",
        "meta_epoch": "2025-12-23T23:25:17.728032",
        "meta_mean_motion": 14.11615323,
        "meta_eccentricity": 0.00894009,
        "meta_inclination": 98.7307,
        "meta_ra_of_asc_node": 352.8069,
        "meta_arg_of_pericenter": 135.92,
        "meta_mean_anomaly": 280.897,
        "meta_ephemeris_type": 0,
        "meta_classification_type": "U",
        "meta_norad_cat_id": 29992,
        "meta_element_set_no": 999,
        "meta_rev_at_epoch": 97546,
        "meta_bstar": 6.3454127e-05,
        "meta_mean_motion_dot": 7.8e-07,
        "meta_mean_motion_ddot": 0,
        "tle_line1": "1 29992U 99025LS  25357.97589963  .00000078  00000+0  63454-4 0  9994",
        "tle_line2": "2 29992  98.7307 352.8069 0089400 135.9200 280.8970 14.11615323975463"
      },
      "geometry": {
        "type": "Point",
        "coordinates": [
          -9.791482474802926,
          18.43495774871692
        ]
      }
    },
    {
      "type": "Feature",
      "properties": {
        "norad_id": 29993,
        "name": "FENGYUN 1C DEB",
        "group": "fengyun-1c-debris",
        "lat": -17.2710644570489,
        "lon": -147.9999016153018,
        "alt_km": 867.5318755580947,
        "timestamp": "2025-12-24T07:45:06.472624+00:00",
        "meta_object_name": "FENGYUN 1C DEB",
        "meta_object_id": "1999-025LT",
        "meta_epoch": "2025-12-23T20:34:53.318784",
        "meta_mean_motion": 14.08151905,
        "meta_eccentricity": 0.0038255,
        "meta_inclination": 98.7919,
        "meta_ra_of_asc_node": 34.3047,
        "meta_arg_of_pericenter": 282.6408,
        "meta_mean_anomaly": 77.0486,
        "meta_ephemeris_type": 0,
        "meta_classification_type": "U",
        "meta_norad_cat_id": 29993,
        "meta_element_set_no": 999,
        "meta_rev_at_epoch": 97326,
        "meta_bstar": 8.629026e-06,
        "meta_mean_motion_dot": -2.9e-07,
        "meta_mean_motion_ddot": 0,
        "tle_line1": "1 29993U 99025LT  25357.85756156 -.00000029  00000+0  86290-5 0  9993",
        "tle_line2": "2 29993  98.7919  34.3047 0038255 282.6408  77.0486 14.08151905973264"
      },
      "geometry": {
        "type": "Point",
        "coordinates": [
          -147.9999016153018,
          -17.2710644570489
        ]
      }
    }
  ]
}